{"fetched_at":"2026-03-29T16:36:15Z","count":15609,"tles":[{"name":"STARLINK-35470","line1":"1 66430U 25259J   26087.91436255  .00025434  00000+0  93061-3 0  9999","line2":"2 66430  43.0039 165.5893 0000844  16.4014 343.6865 15.27580129 22435","category":"Starlink"}]}