{
  "norad_id": 66430,
  "name": "STARLINK-35470",
  "history": [
    {
      "epoch": "2026-03-28T21:56:40.924320Z",
      "apogee_km": 483.62779384117766,
      "perigee_km": 482.46962569336847,
      "latitude_deg": 1.049493309192958e-05,
      "longitude_deg": 10.090820404698428,
      "height_km": 482.26886306261036,
      "semi_major_axis_km": 6861.185709767273,
      "eccentricity": 8.44e-05,
      "inclination_deg": 43.0039,
      "raan_deg": 165.5893,
      "arg_perigee_deg": 16.4014,
      "mean_anomaly_deg": 343.6865,
      "mean_motion_rev_day": 15.27580129
    }
  ]
}